<?xml version="1.0" encoding="UTF-8"?>
<kml xmlns="http://www.opengis.net/kml/2.2"><Document>
  <name>Dubai to Salalah, 18-19 Aug 2026</name>
  <Style id="rt"><LineStyle><color>ff23a6f5</color><width>4</width></LineStyle></Style>
    <Placemark>
      <name>Al Nahda 1, Dubai</name>
      <description>Day 1 (Departure) — Fill up here</description>
      <Point><coordinates>55.3650,25.2930,0</coordinates></Point>
    </Placemark>
    <Placemark>
      <name>Last UAE fuel</name>
      <description>Day 1 (~8 km before Mezyad) — Fuel, Washroom, Food, Insurance</description>
      <Point><coordinates>55.8300,24.0450,0</coordinates></Point>
    </Placemark>
    <Placemark>
      <name>Mezyad Border Post</name>
      <description>Day 1 (UAE exit) — Exit fee AED 35</description>
      <Point><coordinates>55.8462712,24.0231623,0</coordinates></Point>
    </Placemark>
    <Placemark>
      <name>Hafeet Border Post</name>
      <description>Day 1 (Oman entry) — Visa, Customs, Insurance kiosk</description>
      <Point><coordinates>55.8482115,24.0128417,0</coordinates></Point>
    </Placemark>
    <Placemark>
      <name>Ibri</name>
      <description>Day 1 (Oman Oil / Shell) — Fuel, Washroom, Food, ATM, SIM cards</description>
      <Point><coordinates>56.4925148,23.2163282,0</coordinates></Point>
    </Placemark>
    <Placemark>
      <name>Nizwa — hotel</name>
      <description>Day 1 (Overnight) — Bed, Parking</description>
      <Point><coordinates>57.5363993,22.8735362,0</coordinates></Point>
    </Placemark>
    <Placemark>
      <name>Adam</name>
      <description>Day 2 (Shell, Route 31) — Fuel — fill FULL, Washroom, Bakery, ATM, Mosque, Tyre air</description>
      <Point><coordinates>57.5147239,22.3946927,0</coordinates></Point>
    </Placemark>
    <Placemark>
      <name>Ghaba</name>
      <description>Day 2 (Al Maha station) — Fuel, Washroom (rough), Grocery</description>
      <Point><coordinates>57.2538543,21.3789567,0</coordinates></Point>
    </Placemark>
    <Placemark>
      <name>Haima</name>
      <description>Day 2 (Shell — halfway) — Fuel — fill FULL, Clean washroom, Restaurants, Mosque, ATM, Garage</description>
      <Point><coordinates>56.2758961,19.9567873,0</coordinates></Point>
    </Placemark>
    <Placemark>
      <name>Qitbit</name>
      <description>Day 2 (Shell + motel) — Fuel, Family washroom, Restaurants, Mosque, Tyre repair</description>
      <Point><coordinates>54.5019967,19.1760410,0</coordinates></Point>
    </Placemark>
    <Placemark>
      <name>Thumrait</name>
      <description>Day 2 (Shell — last fuel) — Fuel, Washroom, Restaurants, Mosque, ATM</description>
      <Point><coordinates>54.0354019,17.6107190,0</coordinates></Point>
    </Placemark>
    <Placemark>
      <name>Salalah Beach Resort</name>
      <description>Day 2 (Arrival) — Arrived</description>
      <Point><coordinates>54.1576577,17.0088533,0</coordinates></Point>
    </Placemark>
  <Placemark><name>Route</name><styleUrl>#rt</styleUrl>
    <LineString><tessellate>1</tessellate><coordinates>55.36577,25.29222,0 55.36556,25.29202,0 55.36599,25.29157,0 55.36570,25.29136,0 55.36389,25.29163,0 55.36373,25.29138,0 55.36576,25.29128,0 55.36843,25.29354,0 55.36983,25.29242,0 55.36955,25.29184,0 55.36723,25.28922,0 55.36648,25.28809,0 55.40225,25.26739,0 55.40491,25.26650,0 55.40624,25.26584,0 55.40709,25.26525,0 55.40839,25.26390,0 55.40878,25.26271,0 55.40545,25.25124,0 55.40359,25.23666,0 55.40360,25.23224,0 55.40498,25.22101,0 55.40479,25.21805,0 55.40420,25.21598,0 55.39772,25.20179,0 55.39678,25.19908,0 55.39648,25.19630,0 55.39695,25.18607,0 55.39696,25.18221,0 55.39640,25.17723,0 55.39521,25.17216,0 55.39274,25.16523,0 55.38817,25.15349,0 55.38188,25.13881,0 55.37986,25.13497,0 55.37669,25.13044,0 55.37289,25.12628,0 55.36911,25.12341,0 55.36764,25.12253,0 55.36649,25.12225,0 55.36437,25.12244,0 55.36353,25.12219,0 55.36294,25.12180,0 55.36223,25.12056,0 55.36221,25.11979,0 55.36248,25.11904,0 55.36356,25.11805,0 55.36589,25.11761,0 55.36657,25.11725,0 55.36729,25.11657,0 55.37395,25.10846,0 55.37563,25.10572,0 55.37756,25.10420,0 55.38273,25.09858,0 55.40156,25.07578,0 55.41294,25.06289,0 55.41788,25.05802,0 55.42643,25.05104,0 55.43008,25.04772,0 55.44081,25.03565,0 55.46113,25.01056,0 55.47054,24.99808,0 55.50667,24.94681,0 55.51428,24.93531,0 55.51939,24.92696,0 55.53317,24.90289,0 55.54035,24.89086,0 55.56132,24.85870,0 55.56306,24.85564,0 55.56453,24.85244,0 55.57209,24.83319,0 55.59247,24.79381,0 55.59459,24.78912,0 55.61964,24.72857,0 55.62102,24.72392,0 55.62307,24.71251,0 55.62369,24.71023,0 55.62669,24.70221,0 55.62850,24.69865,0 55.63052,24.69528,0 55.63217,24.69336,0 55.63377,24.69201,0 55.65403,24.67792,0 55.67750,24.66494,0 55.68517,24.65996,0 55.69373,24.65648,0 55.69759,24.65478,0 55.69949,24.65370,0 55.70136,24.65220,0 55.70267,24.65074,0 55.70571,24.64554,0 55.70752,24.64329,0 55.71871,24.63323,0 55.72081,24.63051,0 55.72203,24.62816,0 55.72728,24.61648,0 55.73228,24.60226,0 55.73342,24.59956,0 55.74065,24.58515,0 55.74466,24.57772,0 55.75234,24.55941,0 55.75352,24.55538,0 55.75725,24.53892,0 55.76557,24.50917,0 55.78288,24.45415,0 55.78393,24.44841,0 55.78534,24.43878,0 55.79244,24.41536,0 55.79756,24.39193,0 55.79839,24.38718,0 55.79841,24.38200,0 55.79786,24.37876,0 55.79695,24.37563,0 55.79584,24.37282,0 55.79455,24.37040,0 55.77306,24.34006,0 55.77020,24.33713,0 55.76386,24.33271,0 55.76143,24.33049,0 55.76005,24.32879,0 55.75621,24.32285,0 55.75053,24.31642,0 55.74890,24.31426,0 55.74747,24.31178,0 55.74361,24.30344,0 55.73867,24.29599,0 55.73322,24.28475,0 55.73153,24.28206,0 55.72976,24.28002,0 55.72744,24.27802,0 55.72388,24.27611,0 55.72115,24.27518,0 55.71947,24.27499,0 55.71914,24.27472,0 55.71919,24.27436,0 55.71973,24.27401,0 55.72011,24.27332,0 55.72043,24.27183,0 55.72017,24.25975,0 55.71989,24.25914,0 55.72013,24.25839,0 55.71935,24.24289,0 55.71947,24.23087,0 55.72212,24.22417,0 55.72182,24.22318,0 55.72227,24.22260,0 55.72510,24.21146,0 55.72650,24.21166,0 55.73322,24.21205,0 55.73382,24.21187,0 55.73438,24.21212,0 55.73697,24.21216,0 55.73726,24.21176,0 55.73707,24.20823,0 55.73694,24.20763,0 55.73643,24.20709,0 55.73666,24.20667,0 55.73753,24.20668,0 55.74565,24.20506,0 55.74726,24.20490,0 55.75146,24.20519,0 55.77455,24.20581,0 55.78170,24.20575,0 55.78218,24.20551,0 55.78820,24.19366,0 55.78826,24.19289,0 55.78883,24.19241,0 55.79121,24.18759,0 55.79174,24.18610,0 55.79263,24.18473,0 55.81028,24.14925,0 55.81038,24.14843,0 55.81096,24.14790,0 55.82092,24.12776,0 55.82233,24.12275,0 55.82226,24.12197,0 55.82277,24.12116,0 55.82525,24.11135,0 55.82497,24.11019,0 55.82564,24.10962,0 55.82579,24.10926,0 55.83177,24.08606,0 55.83163,24.08544,0 55.83210,24.08480,0 55.83731,24.06463,0 55.83722,24.06405,0 55.83758,24.06349,0 55.84229,24.04522,0 55.84188,24.04472,0 55.83639,24.04347,0 55.82968,24.04248,0 55.82931,24.04491,0 55.82968,24.04248,0 55.83659,24.04347,0 55.84188,24.04472,0 55.84242,24.04450,0 55.84363,24.03911,0 55.84356,24.03863,0 55.84382,24.03821,0 55.84563,24.02972,0 55.84563,24.02894,0 55.84634,24.02526,0 55.84726,24.02225,0 55.84727,24.02109,0 55.84688,24.02042,0 55.84683,24.01995,0 55.84575,24.01951,0 55.84550,24.01923,0 55.84499,24.01541,0 55.84515,24.01526,0 55.84824,24.01477,0 55.84802,24.01232,0 55.84763,24.01150,0 55.84798,24.01114,0 55.84838,24.01143,0 55.84817,24.01233,0 55.84847,24.01522,0 55.84806,24.01574,0 55.84580,24.01624,0 55.84611,24.01911,0 55.84635,24.01951,0 55.84740,24.02016,0 55.84736,24.02049,0 55.84710,24.02057,0 55.84688,24.02042,0 55.84677,24.01988,0 55.84575,24.01951,0 55.84550,24.01923,0 55.84499,24.01541,0 55.84515,24.01526,0 55.84818,24.01483,0 55.84823,24.01372,0 55.84798,24.01213,0 55.84763,24.01155,0 55.84764,24.01078,0 55.84620,24.00900,0 55.84575,24.00784,0 55.84541,23.99872,0 55.84360,23.98482,0 55.84311,23.98399,0 55.84338,23.98308,0 55.84228,23.97846,0 55.84098,23.97541,0 55.84006,23.97373,0 55.83420,23.96471,0 55.82884,23.95669,0 55.82587,23.95342,0 55.82530,23.95257,0 55.82437,23.95030,0 55.82256,23.94702,0 55.82183,23.94526,0 55.82149,23.94308,0 55.82180,23.94075,0 55.82279,23.93752,0 55.82368,23.93577,0 55.82632,23.93251,0 55.82829,23.92894,0 55.85583,23.88725,0 55.85713,23.88502,0 55.87114,23.85480,0 55.87297,23.84801,0 55.87356,23.84366,0 55.87356,23.83843,0 55.87418,23.82908,0 55.87385,23.79374,0 55.87405,23.78413,0 55.87453,23.78092,0 55.87552,23.77738,0 55.87641,23.77521,0 55.88439,23.75931,0 55.89204,23.74211,0 55.90600,23.71827,0 55.91612,23.68917,0 55.91833,23.68519,0 55.93602,23.65832,0 55.95457,23.62229,0 55.95550,23.62023,0 55.95588,23.61848,0 55.95723,23.60719,0 55.95797,23.60510,0 55.95899,23.60333,0 55.96067,23.60139,0 55.96292,23.59962,0 55.96616,23.59816,0 55.96861,23.59747,0 55.96907,23.59708,0 55.97005,23.59711,0 55.99011,23.59175,0 56.01553,23.58697,0 56.02432,23.58548,0 56.04946,23.58361,0 56.05280,23.58314,0 56.05507,23.58259,0 56.05909,23.58119,0 56.06511,23.57824,0 56.06915,23.57676,0 56.09745,23.57031,0 56.11346,23.56579,0 56.11553,23.56501,0 56.13541,23.55561,0 56.13873,23.55390,0 56.14143,23.55212,0 56.14473,23.54925,0 56.16955,23.52493,0 56.17397,23.52050,0 56.18202,23.51185,0 56.18303,23.51051,0 56.18399,23.50847,0 56.18542,23.49961,0 56.18581,23.49824,0 56.18659,23.49671,0 56.18739,23.49559,0 56.18929,23.49377,0 56.18955,23.49314,0 56.19041,23.49275,0 56.20359,23.48042,0 56.20503,23.47882,0 56.20638,23.47687,0 56.20779,23.47384,0 56.20830,23.47209,0 56.21097,23.45517,0 56.21150,23.45285,0 56.21596,23.44218,0 56.21765,23.43926,0 56.21984,23.43641,0 56.24394,23.41027,0 56.24736,23.40732,0 56.25186,23.40460,0 56.26158,23.40069,0 56.26340,23.40005,0 56.27206,23.39795,0 56.27512,23.39687,0 56.27768,23.39552,0 56.28110,23.39280,0 56.29347,23.37896,0 56.29660,23.37496,0 56.32211,23.32879,0 56.32424,23.32593,0 56.32597,23.32425,0 56.32774,23.32289,0 56.34142,23.31446,0 56.34940,23.30900,0 56.35176,23.30776,0 56.35583,23.30608,0 56.35720,23.30528,0 56.35858,23.30415,0 56.36303,23.29876,0 56.36506,23.29667,0 56.38363,23.28045,0 56.38397,23.27970,0 56.38499,23.27923,0 56.38684,23.27744,0 56.39388,23.26813,0 56.39641,23.26560,0 56.40269,23.26022,0 56.40553,23.25756,0 56.40708,23.25589,0 56.42081,23.23923,0 56.42309,23.23705,0 56.42532,23.23533,0 56.43332,23.23055,0 56.43387,23.22997,0 56.43458,23.22983,0 56.45120,23.22017,0 56.45338,23.21928,0 56.45540,23.21868,0 56.45780,23.21827,0 56.46354,23.21782,0 56.46440,23.21749,0 56.46504,23.21767,0 56.46597,23.21765,0 56.48634,23.21611,0 56.49014,23.21617,0 56.49075,23.21603,0 56.49162,23.21659,0 56.49232,23.21629,0 56.49258,23.21634,0 56.49260,23.21656,0 56.49486,23.21706,0 56.49536,23.21749,0 56.49969,23.21823,0 56.50140,23.21813,0 56.51324,23.21646,0 56.51486,23.21617,0 56.51575,23.21584,0 56.52064,23.21324,0 56.52232,23.21189,0 56.52505,23.20873,0 56.52565,23.20836,0 56.52664,23.20810,0 56.52902,23.20837,0 56.53531,23.20821,0 56.53638,23.20786,0 56.53741,23.20820,0 56.54620,23.20821,0 56.54945,23.20882,0 56.55217,23.21015,0 56.56956,23.22251,0 56.57194,23.22390,0 56.57475,23.22506,0 56.57635,23.22552,0 56.57947,23.22606,0 56.58274,23.22615,0 56.58504,23.22593,0 56.58909,23.22494,0 56.61475,23.21550,0 56.61803,23.21455,0 56.62072,23.21408,0 56.62335,23.21386,0 56.63915,23.21366,0 56.64186,23.21328,0 56.64573,23.21228,0 56.64879,23.21109,0 56.65099,23.20996,0 56.67835,23.19481,0 56.68093,23.19381,0 56.71344,23.18378,0 56.71692,23.18233,0 56.72043,23.18028,0 56.73706,23.16771,0 56.73873,23.16668,0 56.74912,23.16135,0 56.75135,23.15968,0 56.75281,23.15807,0 56.75407,23.15609,0 56.75662,23.14992,0 56.75735,23.14862,0 56.76463,23.13863,0 56.76546,23.13685,0 56.76801,23.12892,0 56.76958,23.12604,0 56.77094,23.12423,0 56.77401,23.12128,0 56.80581,23.09530,0 56.80932,23.09300,0 56.81696,23.08925,0 56.81890,23.08776,0 56.82050,23.08583,0 56.82758,23.07295,0 56.82936,23.07120,0 56.84052,23.06632,0 56.84290,23.06497,0 56.86284,23.05054,0 56.86563,23.04882,0 56.86982,23.04721,0 56.87976,23.04478,0 56.88264,23.04350,0 56.88475,23.04188,0 56.89035,23.03649,0 56.89345,23.03417,0 56.91825,23.02069,0 56.92030,23.01992,0 56.92250,23.01936,0 56.94250,23.01625,0 56.94512,23.01609,0 56.94963,23.01649,0 56.95152,23.01646,0 56.95348,23.01617,0 56.95543,23.01556,0 56.98722,23.00274,0 56.99222,23.00016,0 57.00143,22.99476,0 57.00356,22.99410,0 57.00778,22.99335,0 57.01042,22.99240,0 57.02293,22.98530,0 57.02486,22.98471,0 57.02765,22.98441,0 57.02934,22.98384,0 57.03070,22.98299,0 57.03345,22.98031,0 57.03838,22.97631,0 57.04074,22.97446,0 57.04200,22.97382,0 57.04446,22.97317,0 57.04853,22.97286,0 57.05119,22.97185,0 57.05968,22.96634,0 57.06115,22.96506,0 57.06254,22.96331,0 57.06356,22.96072,0 57.06609,22.94847,0 57.06772,22.94330,0 57.06916,22.94011,0 57.07186,22.93556,0 57.07302,22.93423,0 57.07490,22.93299,0 57.07686,22.93234,0 57.07864,22.93220,0 57.09020,22.93395,0 57.10171,22.93438,0 57.10422,22.93507,0 57.10893,22.93742,0 57.11119,22.93818,0 57.14689,22.94505,0 57.15117,22.94614,0 57.15597,22.94765,0 57.15847,22.94817,0 57.16108,22.94824,0 57.16263,22.94804,0 57.16955,22.94592,0 57.17274,22.94585,0 57.17410,22.94605,0 57.17555,22.94641,0 57.17826,22.94763,0 57.17939,22.94838,0 57.18396,22.95227,0 57.18557,22.95327,0 57.18720,22.95403,0 57.19003,22.95489,0 57.19179,22.95519,0 57.19440,22.95530,0 57.19570,22.95519,0 57.21557,22.95268,0 57.21695,22.95240,0 57.21823,22.95184,0 57.21917,22.95119,0 57.22034,22.94985,0 57.22288,22.94508,0 57.22810,22.93880,0 57.22990,22.93711,0 57.23220,22.93590,0 57.24896,22.93002,0 57.25600,22.92724,0 57.25802,22.92614,0 57.26214,22.92302,0 57.26363,22.92237,0 57.26885,22.92068,0 57.27128,22.91951,0 57.27328,22.91809,0 57.27450,22.91689,0 57.28572,22.90228,0 57.28820,22.89972,0 57.29108,22.89743,0 57.29422,22.89548,0 57.29778,22.89389,0 57.30219,22.89259,0 57.33637,22.88644,0 57.34768,22.88464,0 57.35005,22.88462,0 57.35524,22.88551,0 57.36660,22.88846,0 57.36945,22.88870,0 57.37135,22.88864,0 57.37381,22.88829,0 57.38910,22.88483,0 57.39049,22.88470,0 57.39543,22.88477,0 57.39990,22.88438,0 57.40947,22.88304,0 57.41601,22.88100,0 57.43125,22.87949,0 57.43401,22.87904,0 57.44684,22.87506,0 57.44952,22.87377,0 57.45180,22.87187,0 57.45560,22.86643,0 57.45764,22.86420,0 57.46000,22.86223,0 57.46290,22.86036,0 57.47175,22.85623,0 57.47404,22.85532,0 57.47746,22.85441,0 57.48131,22.85397,0 57.48411,22.85399,0 57.48658,22.85426,0 57.50820,22.85867,0 57.51268,22.85920,0 57.51544,22.85923,0 57.51786,22.85897,0 57.52732,22.85696,0 57.52905,22.85680,0 57.53847,22.85841,0 57.54109,22.85917,0 57.54149,22.85893,0 57.54158,22.85839,0 57.54127,22.85769,0 57.54070,22.85716,0 57.54017,22.85718,0 57.53985,22.85757,0 57.53906,22.86185,0 57.53829,22.86381,0 57.53743,22.86696,0 57.53537,22.87224,0 57.53644,22.87277,0 57.53577,22.87440,0 57.53565,22.87461,0 57.53527,22.87453,0 57.53468,22.87575,0 57.53509,22.87705,0 57.53639,22.87836,0 57.53695,22.87861,0 57.53696,22.87893,0 57.53662,22.87892,0 57.53646,22.87860,0 57.53476,22.87713,0 57.53398,22.87596,0 57.53352,22.87569,0 57.53720,22.86721,0 57.53914,22.86105,0 57.54017,22.85446,0 57.54027,22.85086,0 57.54076,22.84771,0 57.54119,22.84538,0 57.54198,22.84266,0 57.54185,22.84188,0 57.54247,22.84108,0 57.54317,22.83857,0 57.54315,22.83657,0 57.54230,22.83298,0 57.54287,22.83191,0 57.54317,22.83034,0 57.54334,22.82482,0 57.54359,22.82353,0 57.54435,22.82207,0 57.54696,22.81887,0 57.54835,22.81671,0 57.54921,22.81472,0 57.55013,22.81102,0 57.55487,22.75893,0 57.55542,22.75500,0 57.55703,22.74862,0 57.56982,22.71449,0 57.57073,22.71092,0 57.57099,22.70906,0 57.57082,22.70290,0 57.56992,22.69928,0 57.56849,22.69565,0 57.55928,22.68017,0 57.55758,22.67584,0 57.55693,22.67314,0 57.55664,22.67090,0 57.55492,22.64963,0 57.54656,22.60469,0 57.54561,22.60108,0 57.53044,22.55072,0 57.52913,22.54735,0 57.52260,22.53314,0 57.52200,22.53133,0 57.52151,22.52845,0 57.51935,22.48543,0 57.51890,22.48267,0 57.51758,22.47912,0 57.50785,22.45797,0 57.50616,22.45502,0 57.49546,22.43864,0 57.49399,22.43567,0 57.49284,22.43245,0 57.49215,22.42972,0 57.49171,22.42631,0 57.49167,22.42393,0 57.49171,22.42238,0 57.49223,22.41874,0 57.49347,22.41437,0 57.49419,22.41260,0 57.50321,22.39449,0 57.50319,22.39372,0 57.50261,22.39275,0 57.50215,22.39116,0 57.50160,22.39052,0 57.50168,22.39015,0 57.50204,22.39001,0 57.50289,22.39022,0 57.50954,22.38957,0 57.51074,22.38914,0 57.51114,22.38887,0 57.51151,22.38828,0 57.51188,22.38820,0 57.51220,22.38853,0 57.51218,22.38930,0 57.51380,22.39219,0 57.51413,22.39421,0 57.51463,22.39438,0 57.51495,22.39508,0 57.51394,22.39521,0 57.51406,22.39358,0 57.51380,22.39219,0 57.51218,22.38930,0 57.51174,22.38899,0 57.51131,22.38900,0 57.50993,22.38962,0 57.50928,22.38973,0 57.50769,22.38973,0 57.50329,22.39014,0 57.50267,22.39032,0 57.50204,22.39080,0 57.50173,22.39071,0 57.50158,22.39042,0 57.50186,22.38915,0 57.50216,22.38875,0 57.50539,22.38772,0 57.50660,22.38679,0 57.50747,22.38540,0 57.50933,22.38121,0 57.50993,22.37855,0 57.50999,22.37481,0 57.51028,22.37120,0 57.51661,22.34446,0 57.51736,22.33951,0 57.51754,22.33436,0 57.51685,22.32215,0 57.51737,22.31083,0 57.51737,22.30667,0 57.51687,22.30138,0 57.51495,22.29094,0 57.51458,22.28706,0 57.51420,22.27451,0 57.51470,22.26819,0 57.51523,22.26491,0 57.52094,22.24327,0 57.52169,22.23837,0 57.52199,22.23459,0 57.52280,22.20085,0 57.52278,22.19369,0 57.52062,22.16209,0 57.52054,22.15900,0 57.52093,22.15237,0 57.52151,22.14898,0 57.52470,22.13508,0 57.52501,22.13277,0 57.52524,22.12680,0 57.52493,22.12431,0 57.52457,22.12193,0 57.51707,22.08868,0 57.51578,22.08185,0 57.51047,22.04523,0 57.50960,22.04184,0 57.50871,22.03968,0 57.50733,22.03709,0 57.50551,22.03444,0 57.49116,22.01674,0 57.48745,22.01167,0 57.48430,22.00681,0 57.46928,21.98162,0 57.46626,21.97579,0 57.45405,21.95021,0 57.44915,21.94159,0 57.43935,21.92532,0 57.43668,21.92043,0 57.43434,21.91541,0 57.42221,21.88631,0 57.40888,21.85977,0 57.40585,21.85453,0 57.40364,21.85164,0 57.40107,21.84876,0 57.38420,21.83328,0 57.38025,21.83002,0 57.37360,21.82501,0 57.35240,21.80980,0 57.35054,21.80821,0 57.34864,21.80622,0 57.34589,21.80253,0 57.34445,21.79968,0 57.33604,21.77766,0 57.33517,21.77498,0 57.33444,21.77181,0 57.33370,21.76758,0 57.33178,21.74341,0 57.33127,21.73901,0 57.32824,21.71903,0 57.32774,21.71400,0 57.32543,21.68120,0 57.32475,21.67667,0 57.32377,21.67334,0 57.32216,21.66965,0 57.30822,21.64583,0 57.30528,21.63958,0 57.30399,21.63602,0 57.29788,21.61486,0 57.29612,21.60694,0 57.29528,21.59762,0 57.29365,21.57365,0 57.29313,21.56940,0 57.29199,21.56320,0 57.28720,21.54475,0 57.28619,21.53839,0 57.28593,21.53512,0 57.28547,21.51042,0 57.28515,21.50335,0 57.28180,21.46963,0 57.28082,21.46295,0 57.27988,21.45805,0 57.27412,21.43227,0 57.27288,21.42795,0 57.27102,21.42243,0 57.26328,21.40213,0 57.26109,21.39550,0 57.25585,21.37782,0 57.25534,21.37766,0 57.25396,21.37802,0 57.25386,21.37899,0 57.25396,21.37802,0 57.25534,21.37766,0 57.25566,21.37727,0 57.25299,21.36767,0 57.25145,21.36300,0 57.24901,21.35661,0 57.24052,21.33682,0 57.23651,21.32574,0 57.22919,21.30428,0 57.22713,21.29928,0 57.22384,21.29262,0 57.20933,21.26582,0 57.20392,21.25747,0 57.19424,21.24312,0 57.19061,21.23676,0 57.18808,21.23107,0 57.18127,21.21398,0 57.18021,21.21076,0 57.17935,21.20739,0 57.17855,21.20306,0 57.17585,21.17998,0 57.17569,21.17460,0 57.17597,21.17144,0 57.17671,21.16778,0 57.18487,21.13994,0 57.18594,21.13473,0 57.18623,21.13214,0 57.18634,21.12836,0 57.18534,21.10419,0 57.18534,21.09820,0 57.18732,21.06982,0 57.18738,21.06101,0 57.18461,21.03155,0 57.18424,21.02459,0 57.18389,20.99329,0 57.18329,20.98457,0 57.17945,20.95203,0 57.17656,20.93660,0 57.17141,20.91170,0 57.17026,20.90788,0 57.16745,20.90069,0 57.15751,20.87665,0 57.15462,20.87064,0 57.15027,20.86246,0 57.14885,20.86025,0 57.13551,20.84291,0 57.13215,20.83771,0 57.13003,20.83338,0 57.12851,20.82908,0 57.12770,20.82580,0 57.12471,20.80583,0 57.12389,20.80176,0 57.12206,20.79620,0 57.11978,20.79138,0 57.10930,20.77451,0 57.09828,20.75433,0 57.09424,20.74766,0 57.06886,20.71277,0 57.06107,20.70334,0 57.04299,20.68238,0 57.04092,20.67976,0 57.03867,20.67638,0 57.03209,20.66389,0 57.02455,20.64886,0 57.02307,20.64553,0 57.02085,20.63987,0 57.01554,20.62414,0 57.01126,20.61236,0 57.00953,20.60884,0 57.00662,20.60395,0 56.99873,20.59263,0 56.99677,20.59023,0 56.99303,20.58692,0 56.99070,20.58539,0 56.98814,20.58410,0 56.95816,20.57160,0 56.95417,20.56941,0 56.95253,20.56831,0 56.93137,20.55046,0 56.92692,20.54710,0 56.92296,20.54460,0 56.89134,20.52657,0 56.88328,20.52173,0 56.88002,20.51948,0 56.84895,20.49623,0 56.84202,20.49177,0 56.81764,20.47877,0 56.81374,20.47691,0 56.80957,20.47529,0 56.78621,20.46778,0 56.78229,20.46594,0 56.78022,20.46463,0 56.77884,20.46363,0 56.75061,20.43950,0 56.74574,20.43501,0 56.72641,20.41581,0 56.72199,20.41196,0 56.68994,20.38816,0 56.64932,20.35398,0 56.64248,20.34859,0 56.61335,20.32690,0 56.60732,20.32218,0 56.60562,20.32039,0 56.60414,20.31843,0 56.60288,20.31636,0 56.60189,20.31418,0 56.58435,20.26170,0 56.58252,20.25713,0 56.57986,20.25203,0 56.55130,20.20858,0 56.54431,20.19908,0 56.52239,20.17057,0 56.51151,20.15600,0 56.48125,20.11076,0 56.47737,20.10597,0 56.47512,20.10360,0 56.43488,20.06997,0 56.42874,20.06522,0 56.39848,20.04276,0 56.36891,20.01811,0 56.36219,20.01333,0 56.32626,19.99008,0 56.31668,19.98321,0 56.29543,19.96755,0 56.29144,19.96540,0 56.28733,19.96373,0 56.28751,19.96302,0 56.28706,19.96265,0 56.28370,19.96127,0 56.27548,19.95848,0 56.27538,19.95833,0 56.27557,19.95786,0 56.27619,19.95688,0 56.27605,19.95669,0 56.27619,19.95688,0 56.27557,19.95786,0 56.27538,19.95833,0 56.27548,19.95848,0 56.28370,19.96127,0 56.28672,19.96250,0 56.28749,19.96293,0 56.28733,19.96373,0 56.27455,19.95922,0 56.27226,19.95800,0 56.22441,19.93518,0 56.21634,19.93086,0 56.19482,19.91817,0 56.19204,19.91594,0 56.18997,19.91354,0 56.18867,19.91145,0 56.18784,19.90973,0 56.17540,19.87637,0 56.17230,19.86824,0 56.17014,19.86326,0 56.15754,19.83722,0 56.15390,19.83027,0 56.15237,19.82780,0 56.14934,19.82374,0 56.12118,19.78920,0 56.11566,19.78192,0 56.11195,19.77595,0 56.09632,19.74882,0 56.09463,19.74626,0 56.09357,19.74491,0 56.09123,19.74250,0 56.08766,19.73970,0 56.04837,19.71599,0 56.04608,19.71497,0 56.04333,19.71403,0 56.04155,19.71357,0 56.03807,19.71301,0 56.00588,19.71094,0 56.00346,19.71073,0 55.99775,19.70977,0 55.99126,19.70796,0 55.94081,19.69245,0 55.89869,19.68203,0 55.89367,19.68061,0 55.88647,19.67784,0 55.84140,19.65755,0 55.83624,19.65487,0 55.80491,19.63715,0 55.80067,19.63512,0 55.79505,19.63291,0 55.76479,19.62277,0 55.76208,19.62209,0 55.75624,19.62106,0 55.70635,19.61518,0 55.65568,19.60634,0 55.65089,19.60589,0 55.64649,19.60578,0 55.63085,19.60615,0 55.62037,19.60675,0 55.59680,19.60906,0 55.58906,19.61000,0 55.58234,19.61112,0 55.56374,19.61466,0 55.56009,19.61513,0 55.55643,19.61524,0 55.55387,19.61511,0 55.55023,19.61467,0 55.53504,19.61185,0 55.52969,19.61116,0 55.52394,19.61073,0 55.49268,19.61000,0 55.48391,19.60928,0 55.45605,19.60621,0 55.45023,19.60582,0 55.44521,19.60585,0 55.40619,19.60948,0 55.39592,19.61003,0 55.36685,19.61076,0 55.34001,19.61318,0 55.32866,19.61480,0 55.29236,19.62154,0 55.28570,19.62246,0 55.28154,19.62285,0 55.25327,19.62483,0 55.24665,19.62496,0 55.22068,19.62447,0 55.21560,19.62403,0 55.21207,19.62354,0 55.18279,19.61822,0 55.18006,19.61766,0 55.17324,19.61565,0 55.17032,19.61453,0 55.14393,19.60230,0 55.10644,19.58169,0 55.09818,19.57763,0 55.07251,19.56588,0 55.06769,19.56402,0 55.06331,19.56256,0 55.03976,19.55539,0 55.03331,19.55369,0 54.99895,19.54592,0 54.99123,19.54444,0 54.98601,19.54376,0 54.98159,19.54386,0 54.97860,19.54435,0 54.97641,19.54492,0 54.97441,19.54560,0 54.97006,19.54759,0 54.93665,19.56354,0 54.93122,19.56540,0 54.92492,19.56665,0 54.92143,19.56696,0 54.91692,19.56696,0 54.91447,19.56676,0 54.90933,19.56587,0 54.90586,19.56492,0 54.90097,19.56308,0 54.89875,19.56202,0 54.89492,19.55971,0 54.89214,19.55774,0 54.88886,19.55489,0 54.88615,19.55203,0 54.88325,19.54824,0 54.88095,19.54437,0 54.86680,19.51707,0 54.86456,19.51394,0 54.86307,19.51223,0 54.86140,19.51068,0 54.86011,19.50959,0 54.85743,19.50774,0 54.81494,19.48189,0 54.80852,19.47763,0 54.77569,19.45231,0 54.74739,19.43331,0 54.74163,19.42910,0 54.72041,19.41256,0 54.71279,19.40637,0 54.69179,19.38727,0 54.68363,19.37947,0 54.66947,19.36360,0 54.66112,19.35380,0 54.65577,19.34669,0 54.64097,19.32608,0 54.63653,19.31942,0 54.62492,19.30015,0 54.62083,19.29377,0 54.61075,19.27951,0 54.60426,19.26988,0 54.58973,19.24575,0 54.58597,19.24063,0 54.58128,19.23570,0 54.55925,19.21576,0 54.55401,19.21156,0 54.52740,19.19359,0 54.52283,19.19034,0 54.51137,19.18147,0 54.50617,19.17843,0 54.50063,19.17625,0 54.50200,19.17602,0 54.50063,19.17625,0 54.49540,19.17458,0 54.49152,19.17309,0 54.48792,19.17146,0 54.47030,19.16161,0 54.45973,19.15548,0 54.44969,19.14891,0 54.42995,19.13555,0 54.42631,19.13265,0 54.42325,19.12982,0 54.42015,19.12663,0 54.40841,19.11404,0 54.40389,19.10877,0 54.40195,19.10615,0 54.39834,19.10057,0 54.38734,19.08314,0 54.38376,19.07822,0 54.36575,19.05721,0 54.36227,19.05268,0 54.34725,19.03168,0 54.34278,19.02517,0 54.33976,19.02009,0 54.32344,18.98848,0 54.31923,18.98106,0 54.29983,18.94956,0 54.29737,18.94511,0 54.28981,18.93045,0 54.28827,18.92783,0 54.28483,18.92307,0 54.28184,18.91987,0 54.27397,18.91206,0 54.26847,18.90618,0 54.24291,18.87540,0 54.23852,18.87057,0 54.20265,18.83338,0 54.19952,18.82966,0 54.19667,18.82541,0 54.18842,18.80889,0 54.18599,18.80497,0 54.18416,18.80258,0 54.18213,18.80044,0 54.17734,18.79615,0 54.14965,18.77240,0 54.12271,18.74565,0 54.11919,18.74186,0 54.11520,18.73702,0 54.10092,18.71670,0 54.09743,18.71071,0 54.09401,18.70325,0 54.08335,18.67825,0 54.07992,18.66826,0 54.07176,18.64259,0 54.07063,18.63821,0 54.06947,18.63143,0 54.06771,18.61595,0 54.06655,18.60543,0 54.06606,18.59887,0 54.06528,18.57095,0 54.06547,18.56089,0 54.06668,18.53878,0 54.06667,18.52995,0 54.06443,18.49910,0 54.06425,18.49368,0 54.06421,18.46213,0 54.06175,18.42821,0 54.06149,18.41846,0 54.06173,18.38889,0 54.06223,18.38070,0 54.06373,18.36358,0 54.06415,18.35578,0 54.06428,18.32841,0 54.06378,18.31836,0 54.06092,18.28886,0 54.06042,18.27822,0 54.06007,18.24973,0 54.06026,18.24395,0 54.06190,18.21621,0 54.06159,18.18473,0 54.06124,18.17439,0 54.06036,18.16767,0 54.05894,18.16067,0 54.05303,18.13376,0 54.05094,18.12585,0 54.04940,18.12148,0 54.03143,18.07822,0 54.02931,18.07183,0 54.02813,18.06688,0 54.01852,18.01921,0 54.01791,18.01468,0 54.01756,18.00952,0 54.01745,17.97084,0 54.01713,17.96473,0 54.01066,17.91591,0 54.00986,17.90750,0 54.00717,17.86788,0 54.00670,17.86286,0 54.00024,17.81428,0 54.00012,17.81136,0 54.00067,17.80720,0 54.00166,17.80397,0 54.01402,17.77514,0 54.01606,17.76885,0 54.01705,17.76411,0 54.02380,17.71999,0 54.02424,17.71793,0 54.02508,17.71560,0 54.02598,17.71381,0 54.02727,17.71191,0 54.02988,17.70914,0 54.04693,17.69623,0 54.04963,17.69350,0 54.05161,17.69072,0 54.05321,17.68745,0 54.05409,17.68479,0 54.05471,17.68114,0 54.05723,17.65905,0 54.05720,17.65734,0 54.05673,17.65654,0 54.05699,17.65579,0 54.05683,17.65480,0 54.05555,17.65115,0 54.05422,17.64881,0 54.05263,17.64678,0 54.04969,17.64417,0 54.04780,17.64297,0 54.03451,17.63578,0 54.03217,17.63418,0 54.03012,17.63179,0 54.02907,17.62966,0 54.02845,17.62707,0 54.02841,17.62538,0 54.02898,17.62236,0 54.03209,17.61340,0 54.03206,17.61239,0 54.03231,17.61211,0 54.03263,17.61208,0 54.03339,17.61275,0 54.03411,17.61297,0 54.03502,17.61039,0 54.03530,17.61049,0 54.03513,17.61098,0 54.03484,17.61089,0 54.03411,17.61297,0 54.03339,17.61275,0 54.03241,17.61295,0 54.03211,17.61275,0 54.03211,17.61227,0 54.03268,17.61161,0 54.03942,17.59210,0 54.04101,17.58615,0 54.04613,17.57077,0 54.04830,17.56502,0 54.05016,17.55883,0 54.05512,17.53712,0 54.05544,17.53469,0 54.05627,17.51366,0 54.05642,17.50845,0 54.05631,17.50666,0 54.05362,17.49224,0 54.05110,17.48190,0 54.05041,17.47782,0 54.04705,17.44914,0 54.04741,17.44722,0 54.05292,17.43572,0 54.05474,17.43038,0 54.05482,17.42850,0 54.05413,17.42509,0 54.05105,17.41714,0 54.05090,17.41511,0 54.05512,17.39201,0 54.05578,17.38904,0 54.05629,17.38755,0 54.05736,17.38532,0 54.06001,17.38067,0 54.06154,17.37659,0 54.06540,17.37023,0 54.07088,17.36416,0 54.07209,17.36242,0 54.07491,17.35653,0 54.07692,17.35034,0 54.07943,17.34514,0 54.08167,17.34119,0 54.08196,17.33999,0 54.08232,17.33518,0 54.08190,17.33057,0 54.08195,17.32935,0 54.08454,17.31620,0 54.08600,17.31158,0 54.08693,17.30430,0 54.08744,17.30293,0 54.08877,17.30080,0 54.08907,17.29988,0 54.08897,17.29894,0 54.08847,17.29805,0 54.08775,17.29748,0 54.08611,17.29677,0 54.08535,17.29589,0 54.08504,17.29507,0 54.08510,17.29433,0 54.08545,17.29345,0 54.08724,17.29128,0 54.08846,17.28828,0 54.08891,17.28663,0 54.08908,17.28430,0 54.08869,17.28237,0 54.08624,17.27793,0 54.08546,17.27703,0 54.08360,17.27559,0 54.08308,17.27473,0 54.08279,17.27370,0 54.08258,17.27167,0 54.08256,17.26899,0 54.08333,17.26618,0 54.08270,17.26288,0 54.08267,17.26168,0 54.08339,17.25752,0 54.08246,17.25136,0 54.08139,17.24920,0 54.07992,17.24762,0 54.07842,17.24666,0 54.07252,17.24363,0 54.07150,17.24286,0 54.07057,17.24112,0 54.07056,17.23954,0 54.07110,17.23821,0 54.07362,17.23470,0 54.07414,17.23340,0 54.07473,17.23077,0 54.07539,17.22974,0 54.08292,17.22529,0 54.08752,17.22055,0 54.08864,17.21990,0 54.09221,17.21864,0 54.09331,17.21792,0 54.09399,17.21717,0 54.09456,17.21622,0 54.09491,17.21506,0 54.09491,17.21164,0 54.09541,17.20940,0 54.09529,17.20849,0 54.09413,17.20616,0 54.09425,17.20531,0 54.09475,17.20445,0 54.09526,17.20412,0 54.09589,17.20397,0 54.09902,17.20426,0 54.10407,17.20245,0 54.10888,17.20101,0 54.11093,17.20001,0 54.11255,17.19837,0 54.11349,17.19637,0 54.11386,17.19358,0 54.11415,17.19263,0 54.11492,17.19167,0 54.11697,17.18982,0 54.11789,17.18855,0 54.12152,17.17920,0 54.12191,17.17642,0 54.12166,17.17320,0 54.12173,17.17161,0 54.12238,17.17039,0 54.12391,17.16898,0 54.12439,17.16786,0 54.12430,17.16456,0 54.12487,17.16303,0 54.12497,17.16215,0 54.12487,17.16142,0 54.12440,17.16026,0 54.12437,17.15929,0 54.12593,17.15541,0 54.12653,17.15318,0 54.12596,17.14816,0 54.12613,17.14679,0 54.12671,17.14531,0 54.12745,17.14417,0 54.12897,17.14268,0 54.13049,17.14150,0 54.13361,17.13951,0 54.13422,17.13877,0 54.13444,17.13813,0 54.13443,17.13739,0 54.13423,17.13680,0 54.13346,17.13568,0 54.13323,17.13479,0 54.13345,17.13370,0 54.13386,17.13317,0 54.13447,17.13271,0 54.13665,17.13169,0 54.13744,17.13087,0 54.13838,17.12945,0 54.13945,17.12869,0 54.14061,17.12838,0 54.14358,17.12820,0 54.14536,17.12756,0 54.14682,17.12663,0 54.14835,17.12486,0 54.15218,17.11754,0 54.15290,17.11474,0 54.15277,17.11187,0 54.14905,17.10097,0 54.14828,17.09775,0 54.14787,17.09705,0 54.14811,17.09635,0 54.14797,17.09309,0 54.14819,17.08580,0 54.14743,17.07520,0 54.14683,17.07077,0 54.14655,17.06954,0 54.14610,17.06889,0 54.14614,17.06770,0 54.14076,17.04972,0 54.13991,17.04414,0 54.13989,17.04181,0 54.14015,17.03914,0 54.14092,17.03571,0 54.14253,17.03188,0 54.14310,17.02979,0 54.14344,17.02690,0 54.14318,17.02621,0 54.14325,17.02599,0 54.14354,17.02587,0 54.14413,17.02615,0 54.15575,17.02606,0 54.15644,17.02594,0 54.15646,17.02157,0 54.15803,17.01846,0 54.15791,17.01824,0 54.15678,17.01765,0 54.15673,17.01671,0 54.15781,17.01665,0 54.15826,17.01589,0 54.15902,17.01379,0 54.15977,17.01311,0 54.16016,17.01195,0 54.15738,17.01149,0 54.15741,17.00872,0 54.15769,17.00868,0</coordinates></LineString>
  </Placemark>
</Document></kml>